NORAD_CAT_ID,OBJECT_NAME,OBJECT_TYPE,EPOCH,MEAN_MOTION,ECCENTRICITY,INCLINATION,RA_OF_ASC_NODE,ARG_OF_PERICENTER,MEAN_ANOMALY,BSTAR,MEAN_MOTION_DOT,MEAN_MOTION_DDOT,TLE_LINE0,TLE_LINE1,TLE_LINE2,SEMIMAJOR_AXIS,PERIOD,APOGEE,PERIGEE,DECAYED
55787.0,STARLINK-5811,PAYLOAD,2024-03-16 14:48:21,14.98335536,0.0002876,70.0004,227.7067,259.6303,100.4532,-0.00016456,-2.056e-05,0.0,0 STARLINK-5811,1 55787U 23028AY  24076.61691155 -.00002056  00000-0 -16456-3 0  9990,2 55787  70.0004 227.7067 0002876 259.6303 100.4532 14.98335536 58710,6950.176,96.107,574.04,570.042,0.0
55787.0,STARLINK-5811,PAYLOAD,2024-03-16 19:36:45,14.98325251,0.0002847,70.0007,227.2018,256.6983,103.3859,4.1071e-06,-4.4e-07,0.0,0 STARLINK-5811,1 55787U 23028AY  24076.81719341 -.00000044  00000-0  41071-5 0  9997,2 55787  70.0007 227.2018 0002847 256.6983 103.3859 14.98325251 58743,6950.208,96.107,574.051,570.094,0.0
55787.0,STARLINK-5811,PAYLOAD,2024-03-17 13:14:13,14.98331948,0.0002896,70.0004,225.351,261.7114,98.3716,1.9857e-05,1.44e-06,0.0,0 STARLINK-5811,1 55787U 23028AY  24077.55154898  .00000144  00000-0  19857-4 0  9995,2 55787  70.0004 225.3510 0002896 261.7114  98.3716 14.98331948 58849,6950.187,96.107,574.065,570.039,0.0
55787.0,STARLINK-5811,PAYLOAD,2024-03-17 19:38:46,14.98332533,0.0002882,70.0007,224.6783,262.1573,97.9259,2.5208e-05,2.08e-06,0.0,0 STARLINK-5811,1 55787U 23028AY  24077.81858822  .00000208  00000-0  25208-4 0  9990,2 55787  70.0007 224.6783 0002882 262.1573  97.9259 14.98332533 58898,6950.185,96.107,574.053,570.047,0.0
55787.0,STARLINK-5811,PAYLOAD,2024-03-18 11:40:04,14.98352534,0.0003411,69.9998,222.9934,274.901,85.1759,0.0002374,2.742e-05,0.0,0 STARLINK-5811,1 55787U 23028AY  24078.48616467  .00002742  00000-0  23740-3 0  9994,2 55787  69.9998 222.9934 0003411 274.9010  85.1759 14.98352534 58986,6950.123,96.106,574.359,569.618,0.0
55787.0,STARLINK-5811,PAYLOAD,2024-03-19 11:42:07,14.98325874,0.000272,70.0019,220.472,263.7543,96.3306,-7.5948e-05,-9.99e-06,0.0,0 STARLINK-5811,1 55787U 23028AY  24079.48759030 -.00000999  00000-0 -75948-4 0  9991,2 55787  70.0019 220.4720 0002720 263.7543  96.3306 14.98325874 59146,6950.206,96.107,573.961,570.18,0.0
55787.0,STARLINK-5811,PAYLOAD,2024-03-19 19:42:47,14.98339244,0.0003434,69.9995,219.6284,273.1618,86.9148,5.2309e-06,-3.1e-07,0.0,0 STARLINK-5811,1 55787U 23028AY  24079.82137825 -.00000031  00000-0  52309-5 0  9994,2 55787  69.9995 219.6284 0003434 273.1618  86.9148 14.98339244 59181,6950.164,96.106,574.416,569.643,0.0
55787.0,STARLINK-5811,PAYLOAD,2024-03-20 10:08:00,14.98331138,0.0003089,70.0036,218.1152,277.7685,82.3123,-0.00027986,-3.431e-05,0.0,0 STARLINK-5811,1 55787U 23028AY  24080.42223055 -.00003431  00000-0 -27986-3 0  9992,2 55787  70.0036 218.1152 0003089 277.7685  82.3123 14.98331138 59275,6950.189,96.107,574.201,569.907,0.0
55787.0,STARLINK-5811,PAYLOAD,2024-03-20 13:20:17,14.98331068,0.0005609,70.0006,217.7768,302.3207,57.7409,-0.00032243,-3.939e-05,0.0,0 STARLINK-5811,1 55787U 23028AY  24080.55575430 -.00003939  00000-0 -32243-3 0  9998,2 55787  70.0006 217.7768 0005609 302.3207  57.7409 14.98331068 59304,6950.19,96.107,575.953,568.156,0.0
55787.0,STARLINK-5811,PAYLOAD,2024-03-20 18:08:41,14.98328593,0.0002877,70.0018,217.2734,270.3811,89.7018,-0.00033075,-4.037e-05,0.0,0 STARLINK-5811,1 55787U 23028AY  24080.75603341 -.00004037  00000-0 -33075-3 0  9997,2 55787  70.0018 217.2734 0002877 270.3811  89.7018 14.98328593 59337,6950.197,96.107,574.062,570.063,0.0
55787.0,STARLINK-5811,PAYLOAD,2024-03-21 11:46:09,14.9833251,0.0003197,70.0,215.42,269.6819,90.3974,2.2415e-05,1.74e-06,0.0,0 STARLINK-5811,1 55787U 23028AY  24081.49038719  .00000174  00000-0  22415-4 0  9993,2 55787  70.0000 215.4200 0003197 269.6819  90.3974 14.98332510 59435,6950.185,96.107,574.272,569.828,0.0
55787.0,STARLINK-5811,PAYLOAD,2024-03-21 14:58:25,14.98336337,0.0003056,70.0005,215.084,265.8995,94.1815,9.0217e-05,9.84e-06,0.0,0 STARLINK-5811,1 55787U 23028AY  24081.62390245  .00000984  00000-0  90217-4 0  9997,2 55787  70.0005 215.0840 0003056 265.8995  94.1815 14.98336337 59463,6950.173,96.107,574.162,569.914,0.0
55787.0,STARLINK-5811,PAYLOAD,2024-03-21 18:10:40,14.98342441,0.0002967,70.0004,214.7468,270.58,89.5019,0.00015594,1.769e-05,0.0,0 STARLINK-5811,1 55787U 23028AY  24081.75741643  .00001769  00000-0  15594-3 0  9999,2 55787  70.0004 214.7468 0002967 270.5800  89.5019 14.98342441 59470,6950.154,96.106,574.082,569.957,0.0
55787.0,STARLINK-5811,PAYLOAD,2024-03-22 11:48:10,14.98328711,0.0002584,70.0016,212.8968,252.8731,107.2145,0.00015686,1.779e-05,0.0,0 STARLINK-5811,1 55787U 23028AY  24082.49178377  .00001779  00000-0  15686-3 0  9992,2 55787  70.0016 212.8968 0002584 252.8731 107.2145 14.98328711 59582,6950.197,96.107,573.858,570.266,0.0
55787.0,STARLINK-5811,PAYLOAD,2024-03-22 13:24:18,14.98330611,0.0002465,70.0016,212.7264,258.4324,101.6558,0.00011307,1.256e-05,0.0,0 STARLINK-5811,1 55787U 23028AY  24082.55854440  .00001256  00000-0  11307-3 0  9997,2 55787  70.0016 212.7264 0002465 258.4324 101.6558 14.98330611 59609,6950.191,96.107,573.769,570.343,0.0
55787.0,STARLINK-5811,PAYLOAD,2024-03-22 18:12:42,14.98331689,0.0002552,70.0019,212.2241,253.5281,106.5598,0.00017863,2.039e-05,0.0,0 STARLINK-5811,1 55787U 23028AY  24082.75882116  .00002039  00000-0  17863-3 0  9993,2 55787  70.0019 212.2241 0002552 253.5281 106.5598 14.98331689 59634,6950.188,96.107,573.826,570.279,0.0
55787.0,STARLINK-5811,PAYLOAD,2024-03-23 11:50:11,14.98329383,0.0002555,70.0026,210.3744,246.6064,113.4826,-9.6611e-05,-1.245e-05,0.0,0 STARLINK-5811,1 55787U 23028AY  24083.49318900 -.00001245  00000-0 -96611-4 0  9999,2 55787  70.0026 210.3744 0002555 246.6064 113.4826 14.98329383 59734,6950.195,96.107,573.836,570.284,0.0
55787.0,STARLINK-5811,PAYLOAD,2024-03-23 18:14:44,14.98325767,0.0002531,70.0025,209.701,248.1002,111.9888,-0.00012748,-1.613e-05,0.0,0 STARLINK-5811,1 55787U 23028AY  24083.76023261 -.00001613  00000-0 -12748-3 0  9999,2 55787  70.0025 209.7010 0002531 248.1002 111.9888 14.98325767 59782,6950.206,96.107,573.83,570.312,0.0
55787.0,STARLINK-5811,PAYLOAD,2024-03-24 13:28:19,14.98335643,0.0002767,70.0015,207.6793,264.1346,95.9497,-7.8186e-06,-1.86e-06,0.0,0 STARLINK-5811,1 55787U 23028AY  24084.56134197 -.00000186  00000-0 -78186-5 0  9993,2 55787  70.0015 207.6793 0002767 264.1346  95.9497 14.98335643 59899,6950.175,96.107,573.964,570.117,0.0
55787.0,STARLINK-5811,PAYLOAD,2024-03-24 18:16:42,14.98350263,0.0002799,70.0011,207.1733,268.1243,91.9596,0.00014917,1.688e-05,0.0,0 STARLINK-5811,1 55787U 23028AY  24084.76160731  .00001688  00000-0  14917-3 0  9994,2 55787  70.0011 207.1733 0002799 268.1243  91.9596 14.98350263 59924,6950.13,96.106,573.941,570.05,0.0
55787.0,STARLINK-5811,PAYLOAD,2024-03-25 11:54:13,14.98325243,0.0002754,70.0004,205.3205,265.4477,94.6368,3.5255e-05,3.28e-06,0.0,0 STARLINK-5811,1 55787U 23028AY  24085.49598511  .00000328  00000-0  35255-4 0  9995,2 55787  70.0004 205.3205 0002754 265.4477  94.6368 14.98325243 60031,6950.208,96.107,573.987,570.159,0.0
55787.0,STARLINK-5811,PAYLOAD,2024-03-25 18:18:45,14.983273,0.0002656,70.0015,204.649,262.1722,97.9135,3.8835e-05,3.7e-06,0.0,0 STARLINK-5811,1 55787U 23028AY  24085.76302440  .00000370  00000-0  38835-4 0  9993,2 55787  70.0015 204.6490 0002656 262.1722  97.9135 14.98327300 60088,6950.201,96.107,573.912,570.22,0.0
55787.0,STARLINK-5811,PAYLOAD,2024-03-26 13:32:23,14.98315342,0.0002232,70.0019,202.6288,258.0501,102.0408,-0.00019577,-2.427e-05,0.0,0 STARLINK-5811,1 55787U 23028AY  24086.56416510 -.00002427  00000-0 -19577-3 0  9994,2 55787  70.0019 202.6288 0002232 258.0501 102.0408 14.98315342 60190,6950.238,96.108,573.655,570.552,0.0
55787.0,STARLINK-5811,PAYLOAD,2024-03-26 15:08:32,14.98316182,0.0002412,70.0018,202.4614,264.4785,95.6099,-0.0002324,-2.864e-05,0.0,0 STARLINK-5811,1 55787U 23028AY  24086.63092660 -.00002864  00000-0 -23240-3 0  9995,2 55787  70.0018 202.4614 0002412 264.4785  95.6099 14.98316182 60214,6950.236,96.108,573.777,570.424,0.0
55787.0,STARLINK-5811,PAYLOAD,2024-03-26 18:20:47,14.9832486,0.0002893,70.0005,202.1203,265.5923,94.4905,-9.7164e-05,-1.252e-05,0.0,0 STARLINK-5811,1 55787U 23028AY  24086.76443684 -.00001252  00000-0 -97164-4 0  9992,2 55787  70.0005 202.1203 0002893 265.5923  94.4905 14.98324860 60226,6950.209,96.107,574.084,570.063,0.0
55787.0,STARLINK-5811,PAYLOAD,2024-03-27 00:45:19,14.98334402,0.0002839,70.0018,201.4461,279.6266,80.4572,-0.00020773,-2.571e-05,0.0,0 STARLINK-5811,1 55787U 23028AY  24087.03147415 -.00002571  00000-0 -20773-3 0  9992,2 55787  70.0018 201.4461 0002839 279.6266  80.4572 14.98334402 60266,6950.179,96.107,574.017,570.071,0.0
55787.0,STARLINK-5811,PAYLOAD,2024-03-27 11:58:18,14.98302424,0.0002591,70.0017,200.2736,266.2215,93.8648,-0.00017434,-2.171e-05,0.0,0 STARLINK-5811,1 55787U 23028AY  24087.49882022 -.00002171  00000-0 -17434-3 0  9998,2 55787  70.0017 200.2736 0002591 266.2215  93.8648 14.98302424 60337,6950.278,96.109,573.944,570.342,0.0
55787.0,STARLINK-5811,PAYLOAD,2024-03-27 13:34:26,14.98302091,0.0002668,70.0014,200.1049,266.8089,93.2764,-0.00018314,-2.276e-05,0.0,0 STARLINK-5811,1 55787U 23028AY  24087.56558174 -.00002276  00000-0 -18314-3 0  9998,2 55787  70.0014 200.1049 0002668 266.8089  93.2764 14.98302091 60355,6950.279,96.109,573.999,570.29,0.0
55787.0,STARLINK-5811,PAYLOAD,2024-03-27 16:46:41,14.98320121,0.0002536,70.0018,199.7684,268.2676,91.8193,3.094e-05,2.76e-06,0.0,0 STARLINK-5811,1 55787U 23028AY  24087.69908742  .00000276  00000-0  30940-4 0  9998,2 55787  70.0018 199.7684 0002536 268.2676  91.8193 14.98320121 60364,6950.223,96.108,573.851,570.326,0.0
55787.0,STARLINK-5811,PAYLOAD,2024-03-28 00:47:20,14.98334537,0.0002897,70.0013,198.9252,276.703,83.3799,6.6305e-05,6.98e-06,0.0,0 STARLINK-5811,1 55787U 23028AY  24088.03287825  .00000698  00000-0  66305-4 0  9991,2 55787  70.0013 198.9252 0002897 276.7030  83.3799 14.98334537 60419,6950.179,96.107,574.057,570.03,0.0
